[{"OBJECT_NAME":"QIANFAN-117","OBJECT_ID":"2026-075J","EPOCH":"2026-04-17T22:07:41.810880","MEAN_MOTION":14.1835751,"ECCENTRICITY":0.00162974,"INCLINATION":88.9906,"RA_OF_ASC_NODE":327.519,"ARG_OF_PERICENTER":201.4387,"MEAN_ANOMALY":158.6121,"EPHEMERIS_TYPE":0,"CLASSIFICATION_TYPE":"U","NORAD_CAT_ID":68644,"ELEMENT_SET_NO":999,"REV_AT_EPOCH":147,"BSTAR":-1.0454242,"MEAN_MOTION_DOT":-0.01997569,"MEAN_MOTION_DDOT":0},{"OBJECT_NAME":"QIANFAN-118","OBJECT_ID":"2026-075K","EPOCH":"2026-04-17T20:24:37.558080","MEAN_MOTION":14.20153623,"ECCENTRICITY":0.00156846,"INCLINATION":88.9902,"RA_OF_ASC_NODE":327.5269,"ARG_OF_PERICENTER":183.2919,"MEAN_ANOMALY":176.8171,"EPHEMERIS_TYPE":0,"CLASSIFICATION_TYPE":"U","NORAD_CAT_ID":68645,"ELEMENT_SET_NO":999,"REV_AT_EPOCH":146,"BSTAR":-1.055963,"MEAN_MOTION_DOT":-0.02079892,"MEAN_MOTION_DDOT":0},{"OBJECT_NAME":"QIANFAN-119","OBJECT_ID":"2026-075L","EPOCH":"2026-04-17T22:04:24.018816","MEAN_MOTION":14.19921713,"ECCENTRICITY":0.00152213,"INCLINATION":88.9901,"RA_OF_ASC_NODE":327.5175,"ARG_OF_PERICENTER":190.1275,"MEAN_ANOMALY":169.961,"EPHEMERIS_TYPE":0,"CLASSIFICATION_TYPE":"U","NORAD_CAT_ID":68646,"ELEMENT_SET_NO":999,"REV_AT_EPOCH":147,"BSTAR":-1.0272926,"MEAN_MOTION_DOT":-0.02019207,"MEAN_MOTION_DDOT":0},{"OBJECT_NAME":"QIANFAN-120","OBJECT_ID":"2026-075M","EPOCH":"2026-04-17T20:20:01.281120","MEAN_MOTION":14.21963187,"ECCENTRICITY":0.00154211,"INCLINATION":88.99,"RA_OF_ASC_NODE":327.5256,"ARG_OF_PERICENTER":172.7213,"MEAN_ANOMALY":187.4205,"EPHEMERIS_TYPE":0,"CLASSIFICATION_TYPE":"U","NORAD_CAT_ID":68647,"ELEMENT_SET_NO":999,"REV_AT_EPOCH":146,"BSTAR":-0.94426359,"MEAN_MOTION_DOT":-0.01935034,"MEAN_MOTION_DDOT":0},{"OBJECT_NAME":"QIANFAN-121","OBJECT_ID":"2026-075N","EPOCH":"2026-04-17T22:02:26.698848","MEAN_MOTION":14.26053937,"ECCENTRICITY":0.00141662,"INCLINATION":88.991,"RA_OF_ASC_NODE":327.518,"ARG_OF_PERICENTER":180.8352,"MEAN_ANOMALY":179.2821,"EPHEMERIS_TYPE":0,"CLASSIFICATION_TYPE":"U","NORAD_CAT_ID":68648,"ELEMENT_SET_NO":999,"REV_AT_EPOCH":147,"BSTAR":0.00011636682,"MEAN_MOTION_DOT":2.93e-6,"MEAN_MOTION_DDOT":0},{"OBJECT_NAME":"QIANFAN-122","OBJECT_ID":"2026-075P","EPOCH":"2026-04-17T22:02:10.761504","MEAN_MOTION":14.26087043,"ECCENTRICITY":0.00143725,"INCLINATION":88.9911,"RA_OF_ASC_NODE":327.518,"ARG_OF_PERICENTER":180.5131,"MEAN_ANOMALY":179.6051,"EPHEMERIS_TYPE":0,"CLASSIFICATION_TYPE":"U","NORAD_CAT_ID":68649,"ELEMENT_SET_NO":999,"REV_AT_EPOCH":147,"BSTAR":0.00012771021,"MEAN_MOTION_DOT":3.2e-6,"MEAN_MOTION_DDOT":0},{"OBJECT_NAME":"QIANFAN-123","OBJECT_ID":"2026-075Q","EPOCH":"2026-04-17T20:27:59.526720","MEAN_MOTION":14.23608656,"ECCENTRICITY":0.00147169,"INCLINATION":88.9909,"RA_OF_ASC_NODE":327.5266,"ARG_OF_PERICENTER":179.2355,"MEAN_ANOMALY":180.8863,"EPHEMERIS_TYPE":0,"CLASSIFICATION_TYPE":"U","NORAD_CAT_ID":68650,"ELEMENT_SET_NO":999,"REV_AT_EPOCH":143,"BSTAR":0.00010472848,"MEAN_MOTION_DOT":2.53e-6,"MEAN_MOTION_DDOT":0},{"OBJECT_NAME":"QIANFAN-124","OBJECT_ID":"2026-075R","EPOCH":"2026-04-17T22:02:06.240192","MEAN_MOTION":14.26079194,"ECCENTRICITY":0.00149095,"INCLINATION":88.9911,"RA_OF_ASC_NODE":327.5179,"ARG_OF_PERICENTER":180.5517,"MEAN_ANOMALY":179.5663,"EPHEMERIS_TYPE":0,"CLASSIFICATION_TYPE":"U","NORAD_CAT_ID":68651,"ELEMENT_SET_NO":999,"REV_AT_EPOCH":147,"BSTAR":0.00014458145,"MEAN_MOTION_DOT":3.6e-6,"MEAN_MOTION_DDOT":0},{"OBJECT_NAME":"QIANFAN-125","OBJECT_ID":"2026-075S","EPOCH":"2026-04-17T22:01:47.622720","MEAN_MOTION":14.26100363,"ECCENTRICITY":0.0014451,"INCLINATION":88.9911,"RA_OF_ASC_NODE":327.5179,"ARG_OF_PERICENTER":181.3716,"MEAN_ANOMALY":178.7441,"EPHEMERIS_TYPE":0,"CLASSIFICATION_TYPE":"U","NORAD_CAT_ID":68652,"ELEMENT_SET_NO":999,"REV_AT_EPOCH":147,"BSTAR":0.00013090209,"MEAN_MOTION_DOT":3.28e-6,"MEAN_MOTION_DDOT":0},{"OBJECT_NAME":"QIANFAN-126","OBJECT_ID":"2026-075T","EPOCH":"2026-04-17T22:01:27.756768","MEAN_MOTION":14.25571697,"ECCENTRICITY":0.00145045,"INCLINATION":88.9907,"RA_OF_ASC_NODE":327.5185,"ARG_OF_PERICENTER":183.4592,"MEAN_ANOMALY":176.6503,"EPHEMERIS_TYPE":0,"CLASSIFICATION_TYPE":"U","NORAD_CAT_ID":68653,"ELEMENT_SET_NO":999,"REV_AT_EPOCH":147,"BSTAR":-0.88025651,"MEAN_MOTION_DOT":-0.01931791,"MEAN_MOTION_DDOT":0},{"OBJECT_NAME":"CZ-8 R/B","OBJECT_ID":"2026-075U","EPOCH":"2026-04-17T21:23:10.912128","MEAN_MOTION":14.40034364,"ECCENTRICITY":0.00736576,"INCLINATION":88.9901,"RA_OF_ASC_NODE":327.4926,"ARG_OF_PERICENTER":86.0522,"MEAN_ANOMALY":274.9096,"EPHEMERIS_TYPE":0,"CLASSIFICATION_TYPE":"U","NORAD_CAT_ID":68654,"ELEMENT_SET_NO":999,"REV_AT_EPOCH":147,"BSTAR":2.4313456e-5,"MEAN_MOTION_DOT":9.6e-7,"MEAN_MOTION_DDOT":0},{"OBJECT_NAME":"HULIANWANG DIGUI-164","OBJECT_ID":"2026-076A","EPOCH":"2026-04-17T23:42:11.873088","MEAN_MOTION":13.79561976,"ECCENTRICITY":0.00043698,"INCLINATION":86.4944,"RA_OF_ASC_NODE":64.9912,"ARG_OF_PERICENTER":175.7851,"MEAN_ANOMALY":184.3352,"EPHEMERIS_TYPE":0,"CLASSIFICATION_TYPE":"U","NORAD_CAT_ID":68656,"ELEMENT_SET_NO":999,"REV_AT_EPOCH":127,"BSTAR":-0.00094115855,"MEAN_MOTION_DOT":-9.52e-6,"MEAN_MOTION_DDOT":0},{"OBJECT_NAME":"HULIANWANG DIGUI-165","OBJECT_ID":"2026-076B","EPOCH":"2026-04-17T23:40:32.205504","MEAN_MOTION":13.80094379,"ECCENTRICITY":0.0003639,"INCLINATION":86.4971,"RA_OF_ASC_NODE":64.992,"ARG_OF_PERICENTER":177.1042,"MEAN_ANOMALY":183.0145,"EPHEMERIS_TYPE":0,"CLASSIFICATION_TYPE":"U","NORAD_CAT_ID":68657,"ELEMENT_SET_NO":999,"REV_AT_EPOCH":127,"BSTAR":0.00013113253,"MEAN_MOTION_DOT":1.53e-6,"MEAN_MOTION_DDOT":0},{"OBJECT_NAME":"HULIANWANG DIGUI-166","OBJECT_ID":"2026-076C","EPOCH":"2026-04-17T23:38:18.934368","MEAN_MOTION":13.80531391,"ECCENTRICITY":0.00036401,"INCLINATION":86.4914,"RA_OF_ASC_NODE":64.9812,"ARG_OF_PERICENTER":162.7917,"MEAN_ANOMALY":197.3373,"EPHEMERIS_TYPE":0,"CLASSIFICATION_TYPE":"U","NORAD_CAT_ID":68658,"ELEMENT_SET_NO":999,"REV_AT_EPOCH":127,"BSTAR":-0.0005257507,"MEAN_MOTION_DOT":-5.33e-6,"MEAN_MOTION_DDOT":0},{"OBJECT_NAME":"HULIANWANG DIGUI-167","OBJECT_ID":"2026-076D","EPOCH":"2026-04-17T23:35:32.264448","MEAN_MOTION":13.81152695,"ECCENTRICITY":0.00043199,"INCLINATION":86.4989,"RA_OF_ASC_NODE":64.994,"ARG_OF_PERICENTER":155.1397,"MEAN_ANOMALY":204.9978,"EPHEMERIS_TYPE":0,"CLASSIFICATION_TYPE":"U","NORAD_CAT_ID":68659,"ELEMENT_SET_NO":999,"REV_AT_EPOCH":127,"BSTAR":-6.7578617e-5,"MEAN_MOTION_DOT":-5.4e-7,"MEAN_MOTION_DDOT":0},{"OBJECT_NAME":"HULIANWANG DIGUI-168","OBJECT_ID":"2026-076E","EPOCH":"2026-04-18T04:45:53.263296","MEAN_MOTION":13.81637658,"ECCENTRICITY":0.00028755,"INCLINATION":86.4944,"RA_OF_ASC_NODE":64.9055,"ARG_OF_PERICENTER":152.6077,"MEAN_ANOMALY":207.5242,"EPHEMERIS_TYPE":0,"CLASSIFICATION_TYPE":"U","NORAD_CAT_ID":68660,"ELEMENT_SET_NO":999,"REV_AT_EPOCH":129,"BSTAR":-0.000640624,"MEAN_MOTION_DOT":-6.66e-6,"MEAN_MOTION_DDOT":0}]
