QIANFAN-117
1 68644U 26075J   26107.92201170 -.01997569  00000+0 -10454+1 0  9997
2 68644  88.9906 327.5190 0016297 201.4387 158.6121 14.18357510  1478
QIANFAN-118
1 68645U 26075K   26107.85043470 -.02079892  00000+0 -10560+1 0  9996
2 68645  88.9902 327.5269 0015684 183.2919 176.8171 14.20153623  1467
QIANFAN-119
1 68646U 26075L   26107.91972244 -.02019207  00000+0 -10273+1 0  9999
2 68646  88.9901 327.5175 0015221 190.1275 169.9610 14.19921713  1475
QIANFAN-120
1 68647U 26075M   26107.84723705 -.01935034  00000+0 -94426+0 0  9993
2 68647  88.9900 327.5256 0015421 172.7213 187.4205 14.21963187  1463
QIANFAN-121
1 68648U 26075N   26107.91836457  .00000293  00000+0  11637-3 0  9995
2 68648  88.9910 327.5180 0014166 180.8352 179.2821 14.26053937  1472
QIANFAN-122
1 68649U 26075P   26107.91818011  .00000320  00000+0  12771-3 0  9993
2 68649  88.9911 327.5180 0014372 180.5131 179.6051 14.26087043  1479
QIANFAN-123
1 68650U 26075Q   26107.85277230  .00000253  00000+0  10473-3 0  9992
2 68650  88.9909 327.5266 0014716 179.2355 180.8863 14.23608656  1435
QIANFAN-124
1 68651U 26075R   26107.91812778  .00000360  00000+0  14458-3 0  9998
2 68651  88.9911 327.5179 0014909 180.5517 179.5663 14.26079194  1470
QIANFAN-125
1 68652U 26075S   26107.91791230  .00000328  00000+0  13090-3 0  9993
2 68652  88.9911 327.5179 0014451 181.3716 178.7441 14.26100363  1471
QIANFAN-126
1 68653U 26075T   26107.91768237 -.01931791  00000+0 -88026+0 0  9992
2 68653  88.9907 327.5185 0014504 183.4592 176.6503 14.25571697  1475
HULIANWANG DIGUI-164
1 68656U 26076A   26107.98763742 -.00000952  00000+0 -94116-3 0  9995
2 68656  86.4944  64.9912 0004369 175.7851 184.3352 13.79561976  1275
HULIANWANG DIGUI-165
1 68657U 26076B   26107.98648386  .00000153  00000+0  13113-3 0  9991
2 68657  86.4971  64.9920 0003639 177.1042 183.0145 13.80094379  1278
HULIANWANG DIGUI-166
1 68658U 26076C   26107.98494137 -.00000533  00000+0 -52575-3 0  9994
2 68658  86.4914  64.9812 0003640 162.7917 197.3373 13.80531391  1270
HULIANWANG DIGUI-167
1 68659U 26076D   26107.98301232 -.00000054  00000+0 -67579-4 0  9997
2 68659  86.4989  64.9940 0004319 155.1397 204.9978 13.81152695  1270
HULIANWANG DIGUI-168
1 68660U 26076E   26108.19853314 -.00000666  00000+0 -64062-3 0  9998
2 68660  86.4944  64.9055 0002875 152.6077 207.5242 13.81637658  1294
CZ-8 R/B
1 68654U 26075U   26107.89109852  .00000096  00000+0  24313-4 0  9998
2 68654  88.9901 327.4926 0073657  86.0522 274.9096 14.40034364  1478
